0 THORAD DELTA 1 DEB
1 08185U 74089BB  13282.34790074  .00000070  00000-0  83148-3 0  4708
2 08185 101.5042 042.5710 0070539 342.4757 039.3200 12.40076760760522
0 THORAD DELTA 1 DEB
1 08185U 74089BB  13287.19986531  .00000074  00000-0  86200-3 0  4729
2 08185 101.5053 047.1584 0070588 333.1373 099.9583 12.40077970761126
0 THORAD DELTA 1 DEB
1 08185U 74089BB  13289.28726821  .00000086  00000-0  94859-3 0  4738
2 08185 101.5056 049.1322 0070650 329.1030 058.7785 12.40078264761388
0 THORAD DELTA 1 DEB
1 08185U 74089BB  13291.30395917  .00000092  00000-0  99594-3 0  4741
2 08185 101.5057 051.0392 0070659 325.2429 061.8851 12.40078681761636
0 THORAD DELTA 1 DEB
1 08185U 74089BB  13293.32796418  .00000111  00000-0  11367-2 0  4750
2 08185 101.5056 052.9532 0070698 321.3581 097.6569 12.40079270761885
0 THORAD DELTA 1 DEB
1 08185U 74089BB  13295.33677949  .00000114  00000-0  11580-2 0  4761
2 08185 101.5056 054.8528 0070731 317.5097 065.6143 12.40080172762133
